{"type": "FeatureCollection", "features": [ {"type": "Feature", "properties": {"norad_id": 30332, "name": "FENGYUN 1C DEB", "group": "fengyun-1c-debris", "lat": -67.9645725006503, "lon": 112.79475792077952, "alt_km": 1090.655211471605, "timestamp": "2025-12-12T07:43:20.789124+00:00", "meta": {"OBJECT_NAME": "FENGYUN 1C DEB", "OBJECT_ID": "1999-025AAT", "EPOCH": "2025-12-11T22:06:02.748096", "MEAN_MOTION": 13.76708223, "ECCENTRICITY": 0.01780691, "INCLINATION": 99.7151, "RA_OF_ASC_NODE": 317.4255, "ARG_OF_PERICENTER": 105.0968, "MEAN_ANOMALY": 317.9405, "EPHEMERIS_TYPE": 0, "CLASSIFICATION_TYPE": "U", "NORAD_CAT_ID": 30332, "ELEMENT_SET_NO": 999, "REV_AT_EPOCH": 94704, "BSTAR": 0.00055544961, "MEAN_MOTION_DOT": 5.68e-06, "MEAN_MOTION_DDOT": 0}, "tle": {"line1": "1 30332U 99025AAT 25345.92086514  .00000568  00000+0  55545-3 0  9995", "line2": "2 30332  99.7151 317.4255 0178069 105.0968 317.9405 13.76708223947044"}}, "geometry": {"type": "Point", "coordinates": [112.79475792077952, -67.9645725006503]}}, {"type": "Feature", "properties": {"norad_id": 30334, "name": "FENGYUN 1C DEB", "group": "fengyun-1c-debris", "lat": 4.907776862072391, "lon": -93.30593962528951, "alt_km": 1025.8390291343248, "timestamp": "2025-12-12T07:43:20.789136+00:00", "meta": {"OBJECT_NAME": "FENGYUN 1C DEB", "OBJECT_ID": "1999-025AAV", "EPOCH": "2025-12-11T05:16:58.882080", "MEAN_MOTION": 13.92368184, "ECCENTRICITY": 0.01446742, "INCLINATION": 99.021, "RA_OF_ASC_NODE": 84.8398, "ARG_OF_PERICENTER": 346.1202, "MEAN_ANOMALY": 70.1219, "EPHEMERIS_TYPE": 0, "CLASSIFICATION_TYPE": "U", "NORAD_CAT_ID": 30334, "ELEMENT_SET_NO": 999, "REV_AT_EPOCH": 95200, "BSTAR": 0.0017444486, "MEAN_MOTION_DOT": 2.399e-05, "MEAN_MOTION_DDOT": 0}, "tle": {"line1": "1 30334U 99025AAV 25345.22012595  .00002399  00000+0  17444-2 0  9997", "line2": "2 30334  99.0210  84.8398 0144674 346.1202  70.1219 13.92368184952001"}}, "geometry": {"type": "Point", "coordinates": [-93.30593962528951, 4.907776862072391]}}, {"type": "Feature", "properties": {"norad_id": 30335, "name": "FENGYUN 1C DEB", "group": "fengyun-1c-debris", "lat": 10.141349754423537, "lon": -23.978753484592886, "alt_km": 941.2075145108938, "timestamp": "2025-12-12T07:43:20.789146+00:00", "meta": {"OBJECT_NAME": "FENGYUN 1C DEB", "OBJECT_ID": "1999-025AAW", "EPOCH": "2025-12-11T23:24:24.812352", "MEAN_MOTION": 14.01360843, "ECCENTRICITY": 0.01327438, "INCLINATION": 98.9051, "RA_OF_ASC_NODE": 337.2902, "ARG_OF_PERICENTER": 133.6495, "MEAN_ANOMALY": 291.0213, "EPHEMERIS_TYPE": 0, "CLASSIFICATION_TYPE": "U", "NORAD_CAT_ID": 30335, "ELEMENT_SET_NO": 999, "REV_AT_EPOCH": 96580, "BSTAR": 0.00013309889, "MEAN_MOTION_DOT": 1.75e-06, "MEAN_MOTION_DDOT": 0}, "tle": {"line1": "1 30335U 99025AAW 25345.97528718  .00000175  00000+0  13310-3 0  9998", "line2": "2 30335  98.9051 337.2902 0132743 133.6495 291.0213 14.01360843965801"}}, "geometry": {"type": "Point", "coordinates": [-23.978753484592886, 10.141349754423537]}}, {"type": "Feature", "properties": {"norad_id": 30336, "name": "FENGYUN 1C DEB", "group": "fengyun-1c-debris", "lat": -9.444906536310803, "lon": -174.15933396835769, "alt_km": 863.1820699845757, "timestamp": "2025-12-12T07:43:20.789156+00:00", "meta": {"OBJECT_NAME": "FENGYUN 1C DEB", "OBJECT_ID": "1999-025AAX", "EPOCH": "2025-12-12T00:23:28.232736", "MEAN_MOTION": 14.19303682, "ECCENTRICITY": 0.00435861, "INCLINATION": 98.6006, "RA_OF_ASC_NODE": 6.9868, "ARG_OF_PERICENTER": 10.6944, "MEAN_ANOMALY": 58.8256, "EPHEMERIS_TYPE": 0, "CLASSIFICATION_TYPE": "U", "NORAD_CAT_ID": 30336, "ELEMENT_SET_NO": 999, "REV_AT_EPOCH": 97592, "BSTAR": 0.00049983768, "MEAN_MOTION_DOT": 1.016e-05, "MEAN_MOTION_DDOT": 0}, "tle": {"line1": "1 30336U 99025AAX 25346.01629899  .00001016  00000+0  49984-3 0  9998", "line2": "2 30336  98.6006   6.9868 0043586  10.6944  58.8256 14.19303682975926"}}, "geometry": {"type": "Point", "coordinates": [-174.15933396835769, -9.444906536310803]}}, {"type": "Feature", "properties": {"norad_id": 30338, "name": "FENGYUN 1C DEB", "group": "fengyun-1c-debris", "lat": 11.604635983218374, "lon": -122.21744358252177, "alt_km": 561.6370624410965, "timestamp": "2025-12-12T07:43:20.789166+00:00", "meta": {"OBJECT_NAME": "FENGYUN 1C DEB", "OBJECT_ID": "1999-025AAZ", "EPOCH": "2025-12-12T00:52:27.254784", "MEAN_MOTION": 14.47506618, "ECCENTRICITY": 0.02720295, "INCLINATION": 98.4592, "RA_OF_ASC_NODE": 55.7456, "ARG_OF_PERICENTER": 196.0038, "MEAN_ANOMALY": 287.4762, "EPHEMERIS_TYPE": 0, "CLASSIFICATION_TYPE": "U", "NORAD_CAT_ID": 30338, "ELEMENT_SET_NO": 999, "REV_AT_EPOCH": 98134, "BSTAR": 0.0016390286, "MEAN_MOTION_DOT": 9.568e-05, "MEAN_MOTION_DDOT": 0}, "tle": {"line1": "1 30338U 99025AAZ 25346.03642656  .00009568  00000+0  16390-2 0  9992", "line2": "2 30338  98.4592  55.7456 0272029 196.0038 287.4762 14.47506618981340"}}, "geometry": {"type": "Point", "coordinates": [-122.21744358252177, 11.604635983218374]}}, {"type": "Feature", "properties": {"norad_id": 30339, "name": "FENGYUN 1C DEB", "group": "fengyun-1c-debris", "lat": 46.53041010029284, "lon": 83.13679771210923, "alt_km": 748.9493083355001, "timestamp": "2025-12-12T07:43:20.789176+00:00", "meta": {"OBJECT_NAME": "FENGYUN 1C DEB", "OBJECT_ID": "1999-025ABA", "EPOCH": "2025-12-11T13:13:13.526400", "MEAN_MOTION": 14.38131098, "ECCENTRICITY": 0.00207725, "INCLINATION": 98.9729, "RA_OF_ASC_NODE": 91.9266, "ARG_OF_PERICENTER": 88.627, "MEAN_ANOMALY": 289.8746, "EPHEMERIS_TYPE": 0, "CLASSIFICATION_TYPE": "U", "NORAD_CAT_ID": 30339, "ELEMENT_SET_NO": 999, "REV_AT_EPOCH": 97410, "BSTAR": 0.0043474104, "MEAN_MOTION_DOT": 0.00013194, "MEAN_MOTION_DDOT": 0}, "tle": {"line1": "1 30339U 99025ABA 25345.55085100  .00013194  00000+0  43474-2 0  9997", "line2": "2 30339  98.9729  91.9266 0020772  88.6270 289.8746 14.38131098974109"}}, "geometry": {"type": "Point", "coordinates": [83.13679771210923, 46.53041010029284]}}, {"type": "Feature", "properties": {"norad_id": 30340, "name": "FENGYUN 1C DEB", "group": "fengyun-1c-debris", "lat": -35.924293170597394, "lon": 49.64585080301038, "alt_km": 989.2164110510157, "timestamp": "2025-12-12T07:43:20.789203+00:00", "meta": {"OBJECT_NAME": "FENGYUN 1C DEB", "OBJECT_ID": "1999-025ABB", "EPOCH": "2025-12-11T03:05:50.339904", "MEAN_MOTION": 14.04594768, "ECCENTRICITY": 0.01461028, "INCLINATION": 99.0013, "RA_OF_ASC_NODE": 41.8686, "ARG_OF_PERICENTER": 139.304, "MEAN_ANOMALY": 276.8922, "EPHEMERIS_TYPE": 0, "CLASSIFICATION_TYPE": "U", "NORAD_CAT_ID": 30340, "ELEMENT_SET_NO": 999, "REV_AT_EPOCH": 96758, "BSTAR": 6.0511062e-05, "MEAN_MOTION_DOT": 6.3e-07, "MEAN_MOTION_DDOT": 0}, "tle": {"line1": "1 30340U 99025ABB 25345.12905486  .00000063  00000+0  60511-4 0  9994", "line2": "2 30340  99.0013  41.8686 0146102 139.3040 276.8922 14.04594768967580"}}, "geometry": {"type": "Point", "coordinates": [49.64585080301038, -35.924293170597394]}}, {"type": "Feature", "properties": {"norad_id": 30341, "name": "FENGYUN 1C DEB", "group": "fengyun-1c-debris", "lat": 52.41530731621818, "lon": 66.51033327602148, "alt_km": 759.7681647796389, "timestamp": "2025-12-12T07:43:20.789225+00:00", "meta": {"OBJECT_NAME": "FENGYUN 1C DEB", "OBJECT_ID": "1999-025ABC", "EPOCH": "2025-12-10T05:29:00.768768", "MEAN_MOTION": 14.3402523, "ECCENTRICITY": 0.005042, "INCLINATION": 99.2179, "RA_OF_ASC_NODE": 232.1005, "ARG_OF_PERICENTER": 64.1783, "MEAN_ANOMALY": 61.1145, "EPHEMERIS_TYPE": 0, "CLASSIFICATION_TYPE": "U", "NORAD_CAT_ID": 30341, "ELEMENT_SET_NO": 999, "REV_AT_EPOCH": 97045, "BSTAR": 0.0045463, "MEAN_MOTION_DOT": 0.00012856, "MEAN_MOTION_DDOT": 0}, "tle": {"line1": "1 30341U 99025ABC 25344.22848112  .00012856  00000+0  45463-2 0  9997", "line2": "2 30341  99.2179 232.1005 0050420  64.1783  61.1145 14.34025230970450"}}, "geometry": {"type": "Point", "coordinates": [66.51033327602148, 52.41530731621818]}}, {"type": "Feature", "properties": {"norad_id": 30342, "name": "FENGYUN 1C DEB", "group": "fengyun-1c-debris", "lat": 15.604055599339462, "lon": 162.88779984669253, "alt_km": 1000.086494799697, "timestamp": "2025-12-12T07:43:20.789237+00:00", "meta": {"OBJECT_NAME": "FENGYUN 1C DEB", "OBJECT_ID": "1999-025ABD", "EPOCH": "2025-12-11T23:40:01.903296", "MEAN_MOTION": 13.80042112, "ECCENTRICITY": 0.01682824, "INCLINATION": 100.1955, "RA_OF_ASC_NODE": 165.4072, "ARG_OF_PERICENTER": 124.5769, "MEAN_ANOMALY": 26.6101, "EPHEMERIS_TYPE": 0, "CLASSIFICATION_TYPE": "U", "NORAD_CAT_ID": 30342, "ELEMENT_SET_NO": 999, "REV_AT_EPOCH": 94878, "BSTAR": 0.0009347428, "MEAN_MOTION_DOT": 1.031e-05, "MEAN_MOTION_DDOT": 0}, "tle": {"line1": "1 30342U 99025ABD 25345.98613314  .00001031  00000+0  93474-3 0  9995", "line2": "2 30342 100.1955 165.4072 0168282 124.5769  26.6101 13.80042112948785"}}, "geometry": {"type": "Point", "coordinates": [162.88779984669253, 15.604055599339462]}}, {"type": "Feature", "properties": {"norad_id": 30344, "name": "FENGYUN 1C DEB", "group": "fengyun-1c-debris", "lat": -2.846652926272498, "lon": 68.80102911328012, "alt_km": 726.5153387296459, "timestamp": "2025-12-12T07:43:20.789248+00:00", "meta": {"OBJECT_NAME": "FENGYUN 1C DEB", "OBJECT_ID": "1999-025ABF", "EPOCH": "2025-12-11T05:23:19.301280", "MEAN_MOTION": 14.5170459, "ECCENTRICITY": 0.00079441, "INCLINATION": 98.8194, "RA_OF_ASC_NODE": 67.2077, "ARG_OF_PERICENTER": 125.409, "MEAN_ANOMALY": 260.8312, "EPHEMERIS_TYPE": 0, "CLASSIFICATION_TYPE": "U", "NORAD_CAT_ID": 30344, "ELEMENT_SET_NO": 999, "REV_AT_EPOCH": 98055, "BSTAR": 0.0038638702, "MEAN_MOTION_DOT": 0.00015503, "MEAN_MOTION_DDOT": 0}, "tle": {"line1": "1 30344U 99025ABF 25345.22452895  .00015503  00000+0  38639-2 0  9999", "line2": "2 30344  98.8194  67.2077 0007944 125.4090 260.8312 14.51704590980554"}}, "geometry": {"type": "Point", "coordinates": [68.80102911328012, -2.846652926272498]}}]}